{"type":"FeatureCollection","features":[{"type":"Feature","properties":{"nombre":"TAQUECITOS","codigo":"11001061","area_ha":4325.6},"geometry":{"type":"Polygon","coordinates":[[[-74.20544,4.2084],[-74.2036,4.21402],[-74.20499,4.21493],[-74.2059,4.21891],[-74.20639,4.21947],[-74.21072,4.21758],[-74.21337,4.21912],[-74.22081,4.22769],[-74.22092,4.22516],[-74.22513,4.22193],[-74.22808,4.22259],[-74.23169,4.21705],[-74.2357,4.20017],[-74.23786,4.19627],[-74.2436,4.19822],[-74.24476,4.1913],[-74.24054,4.18668],[-74.24134,4.18048],[-74.24093,4.1699],[-74.24376,4.15221],[-74.24396,4.14403],[-74.24501,4.14325],[-74.24357,4.13796],[-74.24415,4.13721],[-74.24307,4.13586],[-74.23913,4.1378],[-74.23082,4.13605],[-74.22593,4.13842],[-74.21651,4.14094],[-74.20471,4.14813],[-74.2029,4.15266],[-74.20031,4.15455],[-74.19899,4.15741],[-74.19655,4.15727],[-74.19299,4.15895],[-74.19152,4.15839],[-74.18929,4.15944],[-74.18391,4.1669],[-74.18182,4.172],[-74.18021,4.17375],[-74.17965,4.17514],[-74.18077,4.1787],[-74.18168,4.18045],[-74.18412,4.1817],[-74.18412,4.18303],[-74.18105,4.18422],[-74.18028,4.18415],[-74.17951,4.18205],[-74.17847,4.18338],[-74.18105,4.18743],[-74.18342,4.18847],[-74.18754,4.18638],[-74.19236,4.18659],[-74.1978,4.18533],[-74.20429,4.1921],[-74.20527,4.19357],[-74.20569,4.19678],[-74.20485,4.19978],[-74.20569,4.20251],[-74.20544,4.2084]]]}},{"type":"Feature","properties":{"nombre":"SANTO DOMINGO","codigo":"11001058","area_ha":1034.6},"geometry":{"type":"Polygon","coordinates":[[[-74.32524,4.02076],[-74.33355,4.02288],[-74.34273,4.02364],[-74.34762,4.02201],[-74.35235,4.01695],[-74.35534,4.01782],[-74.35479,4.0156],[-74.35632,4.01331],[-74.35599,4.00826],[-74.35757,4.00413],[-74.35681,4.00185],[-74.35963,3.99794],[-74.36191,3.99723],[-74.36267,3.98979],[-74.36164,3.98848],[-74.35382,3.98962],[-74.35262,3.99196],[-74.35083,3.99267],[-74.34485,3.99076],[-74.34382,3.98859],[-74.34224,3.98903],[-74.34012,3.99093],[-74.33931,3.99527],[-74.32583,4.00473],[-74.33067,4.01282],[-74.32828,4.01685],[-74.32583,4.01875],[-74.32524,4.02076]]]}},{"type":"Feature","properties":{"nombre":"CONCEPCION","codigo":"11001008","area_ha":1846.6},"geometry":{"type":"Polygon","coordinates":[[[-74.31925,3.9055],[-74.31855,3.90883],[-74.31725,3.9104],[-74.31252,3.90959],[-74.30948,3.91089],[-74.30731,3.9129],[-74.31317,3.91382],[-74.31584,3.91605],[-74.32431,3.92605],[-74.32361,3.9273],[-74.32524,3.92985],[-74.32877,3.93067],[-74.32958,3.93165],[-74.3298,3.93447],[-74.33523,3.94018],[-74.33768,3.94137],[-74.33964,3.94137],[-74.34436,3.9449],[-74.35132,3.94463],[-74.35412,3.94269],[-74.35661,3.93519],[-74.35875,3.92158],[-74.36072,3.91763],[-74.3595,3.9138],[-74.36167,3.90834],[-74.3639,3.90722],[-74.36316,3.90507],[-74.3599,3.90482],[-74.35788,3.90334],[-74.35922,3.89566],[-74.35747,3.8906],[-74.35544,3.88909],[-74.35288,3.89063],[-74.35083,3.89697],[-74.34836,3.90045],[-74.34667,3.89974],[-74.34223,3.90595],[-74.34075,3.90607],[-74.33881,3.90494],[-74.34051,3.90244],[-74.33887,3.90149],[-74.33364,3.90271],[-74.32858,3.90646],[-74.32474,3.9067],[-74.31925,3.9055]]]}},{"type":"Feature","properties":{"nombre":"LAS SOPAS","codigo":"11001030","area_ha":10127.4},"geometry":{"type":"Polygon","coordinates":[[[-74.17305,4.13712],[-74.17597,4.13458],[-74.17872,4.12987],[-74.18959,4.12851],[-74.19214,4.12985],[-74.19519,4.13363],[-74.2009,4.13444],[-74.20654,4.13695],[-74.21408,4.14253],[-74.21812,4.14031],[-74.22593,4.13842],[-74.23082,4.13605],[-74.23913,4.1378],[-74.24307,4.13586],[-74.24415,4.13721],[-74.24473,4.13178],[-74.2464,4.12951],[-74.24665,4.12585],[-74.2487,4.12472],[-74.24798,4.11797],[-74.25115,4.11046],[-74.25348,4.10069],[-74.25318,4.09998],[-74.25261,4.101],[-74.24673,4.1019],[-74.24552,4.10374],[-74.24471,4.10172],[-74.24493,4.09743],[-74.24645,4.09297],[-74.24466,4.08096],[-74.24759,4.06939],[-74.25243,4.05776],[-74.25183,4.05586],[-74.24998,4.05499],[-74.24444,4.05292],[-74.24227,4.05309],[-74.24015,4.04548],[-74.23928,4.04499],[-74.23672,4.04668],[-74.23129,4.04244],[-74.23221,4.0382],[-74.23216,4.03342],[-74.23466,4.02521],[-74.23373,4.02309],[-74.22797,4.01858],[-74.22162,4.01685],[-74.21499,4.01308],[-74.21421,4.01408],[-74.21064,4.01202],[-74.20538,4.01482],[-74.20289,4.01419],[-74.20036,4.01543],[-74.19592,4.01612],[-74.19438,4.01516],[-74.19522,4.0166],[-74.1931,4.02108],[-74.19223,4.03317],[-74.18925,4.04543],[-74.18811,4.04692],[-74.18452,4.04622],[-74.17637,4.05507],[-74.17331,4.06102],[-74.17366,4.06549],[-74.17138,4.08065],[-74.16612,4.08117],[-74.162,4.09169],[-74.16216,4.10121],[-74.16869,4.10471],[-74.1648,4.11438],[-74.16359,4.12123],[-74.16123,4.12284],[-74.16255,4.1263],[-74.16591,4.1278],[-74.17137,4.13305],[-74.17305,4.13712]]]}},{"type":"Feature","properties":{"nombre":"PEÑALISA","codigo":"11001045","area_ha":201.6},"geometry":{"type":"Polygon","coordinates":[[[-74.12394,4.19475],[-74.12545,4.19621],[-74.12804,4.19591],[-74.12884,4.19383],[-74.13162,4.19133],[-74.13176,4.18926],[-74.13283,4.18777],[-74.13411,4.18762],[-74.13468,4.18541],[-74.13639,4.1832],[-74.1376,4.17964],[-74.13668,4.17871],[-74.13853,4.17415],[-74.13775,4.17379],[-74.13703,4.17501],[-74.13582,4.17422],[-74.1339,4.17493],[-74.13276,4.17636],[-74.13297,4.17814],[-74.13126,4.17935],[-74.12791,4.17921],[-74.12591,4.18142],[-74.12305,4.18127],[-74.12322,4.18486],[-74.12579,4.18771],[-74.12527,4.19271],[-74.12394,4.19475]]]}},{"type":"Feature","properties":{"nombre":"EL RAIZAL","codigo":"11001014","area_ha":490.3},"geometry":{"type":"Polygon","coordinates":[[[-74.13285,4.20093],[-74.13511,4.20103],[-74.13696,4.19696],[-74.13882,4.19596],[-74.13903,4.19432],[-74.14024,4.19432],[-74.14659,4.19896],[-74.15129,4.19703],[-74.1525,4.19725],[-74.15215,4.18998],[-74.15108,4.18941],[-74.15051,4.18627],[-74.15215,4.18392],[-74.15215,4.1827],[-74.14944,4.18242],[-74.14837,4.18071],[-74.14865,4.17843],[-74.15158,4.17693],[-74.15193,4.17565],[-74.14823,4.17636],[-74.14402,4.17344],[-74.14231,4.17351],[-74.14152,4.17451],[-74.13853,4.17415],[-74.13668,4.17871],[-74.1376,4.17964],[-74.13639,4.1832],[-74.13468,4.18541],[-74.13411,4.18762],[-74.13226,4.18848],[-74.13162,4.19133],[-74.12884,4.19383],[-74.12804,4.19591],[-74.13051,4.19749],[-74.13285,4.20093]]]}},{"type":"Feature","properties":{"nombre":"SANTA ROSA BAJA","codigo":"11001057","area_ha":1401.8},"geometry":{"type":"Polygon","coordinates":[[[-74.16689,4.22823],[-74.16925,4.22882],[-74.18112,4.22854],[-74.18272,4.22603],[-74.18147,4.21116],[-74.17965,4.209],[-74.17986,4.20697],[-74.18559,4.20683],[-74.19271,4.21046],[-74.19522,4.21011],[-74.19829,4.20732],[-74.20544,4.2084],[-74.20527,4.19357],[-74.1985,4.18568],[-74.19236,4.18659],[-74.18754,4.18638],[-74.18342,4.18847],[-74.18028,4.18659],[-74.17847,4.18429],[-74.17951,4.18205],[-74.17817,4.18228],[-74.17646,4.1832],[-74.17589,4.18456],[-74.17111,4.18591],[-74.16783,4.19204],[-74.16591,4.19169],[-74.16441,4.19447],[-74.1664,4.19753],[-74.17325,4.20259],[-74.16655,4.20709],[-74.16113,4.21307],[-74.1612,4.21514],[-74.16484,4.21792],[-74.16676,4.2242],[-74.16689,4.22823]]]}},{"type":"Feature","properties":{"nombre":"LAGUNA VERDE","codigo":"11001023","area_ha":523.4},"geometry":{"type":"Polygon","coordinates":[[[-74.1525,4.19725],[-74.15286,4.19981],[-74.15493,4.20031],[-74.15642,4.2021],[-74.16441,4.19447],[-74.16591,4.19169],[-74.16783,4.19204],[-74.17111,4.18591],[-74.17589,4.18456],[-74.17646,4.1832],[-74.17817,4.18228],[-74.17781,4.18121],[-74.17667,4.18135],[-74.17489,4.17978],[-74.16747,4.17864],[-74.16534,4.17672],[-74.15678,4.17536],[-74.15407,4.17394],[-74.15193,4.17565],[-74.15158,4.17693],[-74.14865,4.17843],[-74.14837,4.18071],[-74.14944,4.18242],[-74.15215,4.1827],[-74.15215,4.18392],[-74.15051,4.18627],[-74.15108,4.18941],[-74.15215,4.18998],[-74.1525,4.19725]]]}},{"type":"Feature","properties":{"nombre":"LASURAS","codigo":"11001026","area_ha":423},"geometry":{"type":"Polygon","coordinates":[[[-74.17951,4.18205],[-74.18028,4.18415],[-74.18412,4.18303],[-74.18412,4.1817],[-74.18168,4.18045],[-74.17965,4.17514],[-74.18468,4.16579],[-74.18223,4.1621],[-74.17788,4.16281],[-74.17596,4.1621],[-74.17189,4.16224],[-74.17047,4.1631],[-74.16762,4.16916],[-74.16441,4.17073],[-74.1607,4.17051],[-74.15379,4.17165],[-74.14764,4.17583],[-74.14915,4.17636],[-74.15193,4.17565],[-74.15407,4.17394],[-74.15678,4.17536],[-74.16534,4.17672],[-74.16747,4.17864],[-74.17489,4.17978],[-74.17667,4.18135],[-74.17781,4.18121],[-74.17817,4.18228],[-74.17951,4.18205]]]}},{"type":"Feature","properties":{"nombre":"NAZARETH","codigo":"11001038","area_ha":244},"geometry":{"type":"Polygon","coordinates":[[[-74.14316,4.17344],[-74.14764,4.17583],[-74.15379,4.17165],[-74.1607,4.17051],[-74.16441,4.17073],[-74.16847,4.16823],[-74.17047,4.1631],[-74.16883,4.16281],[-74.16755,4.16025],[-74.16712,4.16082],[-74.16462,4.15875],[-74.16298,4.15982],[-74.15899,4.15904],[-74.15657,4.16153],[-74.15714,4.16253],[-74.15571,4.16388],[-74.15514,4.16631],[-74.15158,4.16845],[-74.14545,4.16994],[-74.14316,4.17344]]]}},{"type":"Feature","properties":{"nombre":"LAS PALMAS","codigo":"11001029","area_ha":500.1},"geometry":{"type":"Polygon","coordinates":[[[-74.16398,4.12744],[-74.16284,4.13002],[-74.15992,4.13245],[-74.15386,4.13501],[-74.1535,4.1425],[-74.15222,4.1477],[-74.15293,4.15169],[-74.15215,4.15369],[-74.15364,4.15932],[-74.15236,4.16053],[-74.15229,4.16224],[-74.1493,4.16882],[-74.15158,4.16845],[-74.15514,4.16631],[-74.15571,4.16388],[-74.15714,4.16253],[-74.15657,4.16153],[-74.15899,4.15904],[-74.15928,4.15369],[-74.16106,4.15269],[-74.16263,4.14898],[-74.16362,4.14963],[-74.16391,4.1477],[-74.16605,4.14528],[-74.16861,4.14392],[-74.17305,4.13712],[-74.17137,4.13305],[-74.16912,4.13048],[-74.16498,4.12716],[-74.16398,4.12744]]]}},{"type":"Feature","properties":{"nombre":"LASANIMAS","codigo":"11001025","area_ha":1392.9},"geometry":{"type":"Polygon","coordinates":[[[-74.17047,4.1631],[-74.17368,4.16189],[-74.17788,4.16281],[-74.18223,4.1621],[-74.18517,4.16572],[-74.18929,4.15944],[-74.19152,4.15839],[-74.19299,4.15895],[-74.19655,4.15727],[-74.19899,4.15741],[-74.20031,4.15455],[-74.2029,4.15266],[-74.20471,4.14813],[-74.21408,4.14253],[-74.20654,4.13695],[-74.2009,4.13444],[-74.19519,4.13363],[-74.19093,4.12888],[-74.18959,4.12851],[-74.18808,4.12918],[-74.18618,4.12852],[-74.17872,4.12987],[-74.17597,4.13458],[-74.17305,4.13712],[-74.17097,4.14107],[-74.16391,4.1477],[-74.16362,4.14963],[-74.16263,4.14898],[-74.16184,4.14977],[-74.16106,4.15269],[-74.15928,4.15369],[-74.15899,4.15904],[-74.16298,4.15982],[-74.16462,4.15875],[-74.16712,4.16082],[-74.16755,4.16025],[-74.16883,4.16281],[-74.17047,4.1631]]]}},{"type":"Feature","properties":{"nombre":"LOS RIOS","codigo":"11001035","area_ha":8439.3},"geometry":{"type":"Polygon","coordinates":[[[-74.11002,4.18204],[-74.11516,4.18241],[-74.11725,4.18184],[-74.11885,4.18034],[-74.12091,4.18007],[-74.12305,4.18127],[-74.12591,4.18142],[-74.12791,4.17921],[-74.13219,4.17886],[-74.13297,4.17814],[-74.13276,4.17636],[-74.13497,4.17422],[-74.13703,4.17501],[-74.13775,4.17379],[-74.14152,4.17451],[-74.14316,4.17344],[-74.14545,4.16994],[-74.1493,4.16882],[-74.15229,4.16224],[-74.15236,4.16053],[-74.15364,4.15932],[-74.15215,4.15369],[-74.15293,4.15169],[-74.15222,4.1477],[-74.1535,4.1425],[-74.15386,4.13501],[-74.15992,4.13245],[-74.16284,4.13002],[-74.16398,4.12744],[-74.16255,4.1263],[-74.16134,4.12223],[-74.16305,4.12209],[-74.16359,4.12123],[-74.1648,4.11438],[-74.16869,4.10471],[-74.16216,4.10121],[-74.162,4.09169],[-74.16612,4.08117],[-74.17138,4.08065],[-74.17366,4.06549],[-74.17374,4.05954],[-74.17637,4.05507],[-74.18452,4.04622],[-74.18811,4.04692],[-74.18925,4.04543],[-74.19188,4.03536],[-74.1931,4.02108],[-74.19522,4.0166],[-74.19114,4.01252],[-74.18428,4.00884],[-74.18088,4.01116],[-74.17529,4.01689],[-74.16782,4.01619],[-74.16056,4.01953],[-74.15401,4.01422],[-74.15385,4.00565],[-74.15258,4.00474],[-74.15071,4.00503],[-74.14991,4.00991],[-74.14866,4.01149],[-74.14721,4.01665],[-74.14765,4.0192],[-74.14636,4.02044],[-74.14361,4.02084],[-74.14232,4.02353],[-74.13884,4.02734],[-74.13873,4.03069],[-74.13532,4.03266],[-74.13335,4.03577],[-74.13278,4.0388],[-74.13104,4.04132],[-74.12458,4.05739],[-74.12593,4.06831],[-74.12731,4.06928],[-74.12769,4.07253],[-74.12859,4.07257],[-74.1312,4.0763],[-74.13277,4.07993],[-74.13255,4.08142],[-74.13068,4.08617],[-74.13005,4.09153],[-74.12716,4.09441],[-74.11975,4.09786],[-74.12772,4.10053],[-74.12973,4.10299],[-74.13136,4.11066],[-74.13109,4.11546],[-74.12936,4.12139],[-74.12969,4.12857],[-74.12728,4.13325],[-74.12701,4.13545],[-74.12469,4.13672],[-74.12228,4.1361],[-74.11801,4.13698],[-74.11705,4.14051],[-74.11448,4.14183],[-74.11448,4.14249],[-74.11733,4.14404],[-74.11765,4.14627],[-74.11488,4.1494],[-74.11412,4.15392],[-74.11466,4.15591],[-74.11212,4.16168],[-74.11244,4.16394],[-74.10906,4.1692],[-74.10995,4.17701],[-74.11128,4.17835],[-74.11002,4.18204]]]}},{"type":"Feature","properties":{"nombre":"LAGUNITAS","codigo":"11001024","area_ha":4439.8},"geometry":{"type":"Polygon","coordinates":[[[-74.24187,3.95893],[-74.24555,3.96112],[-74.25145,3.96149],[-74.25312,3.96371],[-74.25512,3.96394],[-74.25613,3.96542],[-74.25794,3.9636],[-74.2592,3.96353],[-74.26165,3.96765],[-74.26343,3.96805],[-74.26432,3.96991],[-74.26536,3.96924],[-74.26889,3.97195],[-74.26952,3.97147],[-74.273,3.97484],[-74.27701,3.9761],[-74.28302,3.97992],[-74.28873,3.98141],[-74.29311,3.98541],[-74.29778,3.98671],[-74.30394,3.99254],[-74.30438,3.98853],[-74.30613,3.98794],[-74.30776,3.99035],[-74.30564,3.99335],[-74.30602,3.99413],[-74.31199,3.9971],[-74.32341,3.99955],[-74.32975,3.99751],[-74.33505,3.99774],[-74.33931,3.99527],[-74.34012,3.99093],[-74.34474,3.98778],[-74.3386,3.97832],[-74.33795,3.97327],[-74.33614,3.96975],[-74.32984,3.96229],[-74.32721,3.95746],[-74.32507,3.95553],[-74.32251,3.9547],[-74.31048,3.94353],[-74.30622,3.9413],[-74.30222,3.93797],[-74.29556,3.93571],[-74.29006,3.93561],[-74.28313,3.93694],[-74.28126,3.93637],[-74.27727,3.9393],[-74.2754,3.93937],[-74.27324,3.93727],[-74.2722,3.93807],[-74.26987,3.93754],[-74.26694,3.93584],[-74.26404,3.93531],[-74.26351,3.93381],[-74.26151,3.93411],[-74.25664,3.93125],[-74.25686,3.93828],[-74.25938,3.94547],[-74.26177,3.94917],[-74.25514,3.94961],[-74.25065,3.94825],[-74.2485,3.9517],[-74.24519,3.95405],[-74.24451,3.95633],[-74.24187,3.95893]]]}},{"type":"Feature","properties":{"nombre":"SAN JOSE","codigo":"11001051","area_ha":10398.1},"geometry":{"type":"Polygon","coordinates":[[[-74.39787,3.74534],[-74.39874,3.7508],[-74.3972,3.755],[-74.39555,3.75461],[-74.39091,3.75042],[-74.38937,3.75088],[-74.38722,3.75339],[-74.38676,3.75695],[-74.38742,3.7604],[-74.38973,3.76292],[-74.39206,3.76773],[-74.39062,3.77095],[-74.37803,3.77771],[-74.37709,3.77919],[-74.37654,3.78389],[-74.37322,3.78479],[-74.36855,3.7879],[-74.36759,3.78785],[-74.36537,3.78568],[-74.36415,3.78594],[-74.36231,3.79085],[-74.36027,3.79232],[-74.35767,3.79687],[-74.35269,3.79948],[-74.35257,3.80317],[-74.35466,3.8077],[-74.35303,3.80657],[-74.35078,3.8068],[-74.34367,3.81241],[-74.33944,3.81036],[-74.33801,3.8108],[-74.33545,3.81689],[-74.3363,3.82125],[-74.32997,3.82187],[-74.32811,3.82576],[-74.32604,3.82678],[-74.31952,3.82491],[-74.31822,3.82207],[-74.31791,3.817],[-74.31648,3.81535],[-74.3075,3.81813],[-74.30319,3.81719],[-74.29868,3.81772],[-74.29619,3.81945],[-74.29442,3.82478],[-74.29417,3.83222],[-74.29938,3.83871],[-74.30489,3.8394],[-74.30671,3.84043],[-74.3043,3.84947],[-74.30453,3.8521],[-74.3123,3.8647],[-74.31439,3.87186],[-74.31722,3.87803],[-74.31817,3.87682],[-74.32078,3.87644],[-74.32388,3.87389],[-74.33252,3.87313],[-74.33648,3.87161],[-74.33882,3.8697],[-74.34213,3.86585],[-74.34415,3.86161],[-74.34387,3.8552],[-74.34746,3.85541],[-74.35012,3.85438],[-74.3574,3.85672],[-74.3592,3.85797],[-74.36229,3.85824],[-74.37696,3.86438],[-74.38233,3.86869],[-74.38436,3.8684],[-74.38675,3.86258],[-74.38477,3.86165],[-74.38712,3.85687],[-74.38587,3.85613],[-74.38604,3.85479],[-74.38862,3.85216],[-74.38975,3.84937],[-74.38903,3.84831],[-74.38929,3.84651],[-74.39063,3.84543],[-74.39028,3.84165],[-74.39265,3.83841],[-74.3922,3.83674],[-74.3941,3.83197],[-74.39555,3.82364],[-74.40263,3.81667],[-74.40381,3.81335],[-74.40572,3.81221],[-74.40618,3.80997],[-74.41266,3.80345],[-74.41346,3.80041],[-74.41264,3.79922],[-74.41852,3.78996],[-74.42116,3.78824],[-74.42415,3.78424],[-74.42573,3.78375],[-74.427,3.78483],[-74.42904,3.78391],[-74.43071,3.78459],[-74.43592,3.77706],[-74.43647,3.77125],[-74.43271,3.76175],[-74.43313,3.76053],[-74.4343,3.75838],[-74.44203,3.75199],[-74.44617,3.74708],[-74.45333,3.7277],[-74.44988,3.7269],[-74.44451,3.72834],[-74.43883,3.73496],[-74.43543,3.73756],[-74.42297,3.74171],[-74.42227,3.743],[-74.42033,3.74099],[-74.41878,3.74187],[-74.41428,3.74109],[-74.40814,3.73761],[-74.40317,3.73788],[-74.40167,3.73867],[-74.39787,3.74534]]]}},{"type":"Feature","properties":{"nombre":"SAN ANTONIO","codigo":"11001049","area_ha":3464.4},"geometry":{"type":"Polygon","coordinates":[[[-74.25318,4.09998],[-74.25468,4.09892],[-74.26312,4.09793],[-74.2719,4.10098],[-74.27739,4.10053],[-74.28074,4.10221],[-74.29062,4.10305],[-74.29964,4.10547],[-74.30045,4.10722],[-74.30598,4.11],[-74.30844,4.11486],[-74.31372,4.11864],[-74.31916,4.12611],[-74.3243,4.12711],[-74.32952,4.1309],[-74.33019,4.12963],[-74.3292,4.12796],[-74.32899,4.12519],[-74.33042,4.1233],[-74.33059,4.11946],[-74.33314,4.11426],[-74.33453,4.11427],[-74.33485,4.11079],[-74.33644,4.10737],[-74.33908,4.10493],[-74.33902,4.10304],[-74.34266,4.1013],[-74.34159,4.0984],[-74.34457,4.09409],[-74.34465,4.08791],[-74.3462,4.08584],[-74.34601,4.08378],[-74.34746,4.08265],[-74.347,4.08123],[-74.34886,4.07801],[-74.3455,4.07602],[-74.34355,4.07602],[-74.33942,4.07819],[-74.3373,4.08156],[-74.3329,4.08411],[-74.32426,4.08102],[-74.32263,4.07776],[-74.31714,4.07547],[-74.3123,4.07841],[-74.29975,4.07786],[-74.29138,4.07998],[-74.28351,4.0746],[-74.2803,4.07547],[-74.27519,4.07906],[-74.26606,4.08134],[-74.2602,4.08444],[-74.25487,4.0846],[-74.25389,4.0814],[-74.25259,4.08053],[-74.2502,4.08113],[-74.2496,4.07993],[-74.24841,4.08096],[-74.2452,4.07939],[-74.24476,4.08265],[-74.24645,4.09297],[-74.24493,4.09743],[-74.24471,4.10172],[-74.24552,4.10374],[-74.24673,4.1019],[-74.25261,4.101],[-74.25318,4.09998]]]}},{"type":"Feature","properties":{"nombre":"TUNAL ALTO","codigo":"11001066","area_ha":3728.5},"geometry":{"type":"Polygon","coordinates":[[[-74.25664,3.93125],[-74.26151,3.93411],[-74.26351,3.93381],[-74.26404,3.93531],[-74.26694,3.93584],[-74.26987,3.93754],[-74.2722,3.93807],[-74.27324,3.93727],[-74.2754,3.93937],[-74.27727,3.9393],[-74.28126,3.93637],[-74.28666,3.93674],[-74.29153,3.93547],[-74.29556,3.93571],[-74.30222,3.93797],[-74.30622,3.9413],[-74.31048,3.94353],[-74.32251,3.9547],[-74.32507,3.95553],[-74.32721,3.95746],[-74.32984,3.96229],[-74.33614,3.96975],[-74.33795,3.97327],[-74.34317,3.97071],[-74.34257,3.96697],[-74.34376,3.96604],[-74.34648,3.96686],[-74.34817,3.96371],[-74.34659,3.958],[-74.34784,3.95479],[-74.34969,3.95447],[-74.35028,3.94768],[-74.35618,3.94877],[-74.35664,3.94687],[-74.35474,3.94478],[-74.35483,3.94195],[-74.35132,3.94463],[-74.34436,3.9449],[-74.33964,3.94137],[-74.33768,3.94137],[-74.33523,3.94018],[-74.3298,3.93447],[-74.32958,3.93165],[-74.32877,3.93067],[-74.32524,3.92985],[-74.32361,3.9273],[-74.32431,3.92605],[-74.31584,3.91605],[-74.31317,3.91382],[-74.30731,3.9129],[-74.30948,3.91089],[-74.31252,3.90959],[-74.31725,3.9104],[-74.31806,3.90975],[-74.31926,3.90546],[-74.31964,3.89991],[-74.31442,3.89008],[-74.31508,3.88878],[-74.3145,3.88573],[-74.31115,3.8894],[-74.31011,3.88885],[-74.30667,3.88342],[-74.29923,3.88237],[-74.29899,3.88089],[-74.29708,3.88404],[-74.28719,3.89394],[-74.28222,3.9003],[-74.27976,3.90598],[-74.27761,3.90771],[-74.27559,3.91381],[-74.2762,3.91548],[-74.27522,3.91776],[-74.27553,3.92069],[-74.27313,3.92446],[-74.26717,3.92829],[-74.25636,3.92915],[-74.25664,3.93125]]]}},{"type":"Feature","properties":{"nombre":"TUNAL BAJO","codigo":"11001067","area_ha":664.8},"geometry":{"type":"Polygon","coordinates":[[[-74.34474,3.98778],[-74.3492,3.98827],[-74.35403,3.98707],[-74.35985,3.98403],[-74.36385,3.98059],[-74.36117,3.97602],[-74.35684,3.97114],[-74.35583,3.96362],[-74.356,3.96107],[-74.35711,3.96082],[-74.35632,3.95761],[-74.35676,3.95434],[-74.35564,3.9525],[-74.35662,3.95026],[-74.35618,3.94877],[-74.35028,3.94768],[-74.34969,3.95447],[-74.34784,3.95479],[-74.34659,3.958],[-74.34817,3.96371],[-74.34648,3.96686],[-74.34376,3.96604],[-74.34257,3.96697],[-74.34317,3.97071],[-74.33795,3.97327],[-74.3386,3.97832],[-74.34474,3.98778]]]}},{"type":"Feature","properties":{"nombre":"LA UNION","codigo":"11001022","area_ha":423.1},"geometry":{"type":"Polygon","coordinates":[[[-74.35528,4.01511],[-74.35963,4.01614],[-74.36224,4.0151],[-74.36234,4.01013],[-74.36366,4.00467],[-74.36635,4.00229],[-74.36701,3.99999],[-74.36895,3.9975],[-74.37045,3.99409],[-74.37074,3.99031],[-74.37395,3.98752],[-74.37446,3.98563],[-74.37141,3.9846],[-74.36866,3.98174],[-74.36556,3.98189],[-74.36385,3.98059],[-74.35985,3.98403],[-74.35403,3.98707],[-74.3492,3.98827],[-74.34474,3.98778],[-74.34382,3.98859],[-74.34485,3.99076],[-74.34958,3.99267],[-74.35262,3.99196],[-74.35382,3.98962],[-74.35637,3.98886],[-74.36164,3.98848],[-74.36267,3.98979],[-74.36191,3.99723],[-74.35963,3.99794],[-74.35681,4.00185],[-74.35757,4.00413],[-74.35599,4.00826],[-74.35632,4.01331],[-74.35528,4.01511]]]}},{"type":"Feature","properties":{"nombre":"CAPITOLIO","codigo":"11001004","area_ha":1503},"geometry":{"type":"Polygon","coordinates":[[[-74.32045,4.03896],[-74.32545,4.04054],[-74.32757,4.04304],[-74.33616,4.047],[-74.33974,4.05135],[-74.34311,4.05363],[-74.35168,4.05622],[-74.35485,4.05181],[-74.35894,4.04975],[-74.36239,4.04626],[-74.36496,4.03669],[-74.366,4.0362],[-74.36414,4.03289],[-74.3646,4.02995],[-74.3628,4.02389],[-74.36372,4.02089],[-74.36262,4.01999],[-74.36238,4.01756],[-74.36307,4.01637],[-74.36224,4.0151],[-74.35963,4.01614],[-74.35528,4.01511],[-74.35534,4.01782],[-74.35235,4.01695],[-74.34762,4.02201],[-74.34273,4.02364],[-74.33355,4.02288],[-74.32524,4.02076],[-74.32143,4.0244],[-74.31991,4.02712],[-74.31676,4.0288],[-74.32051,4.03548],[-74.32045,4.03896]]]}},{"type":"Feature","properties":{"nombre":"NUEVA GRANADA","codigo":"11001039","area_ha":2559.9},"geometry":{"type":"Polygon","coordinates":[[[-74.31925,3.9055],[-74.32474,3.9067],[-74.32858,3.90646],[-74.33364,3.90271],[-74.33887,3.90149],[-74.34051,3.90244],[-74.33881,3.90494],[-74.34075,3.90607],[-74.34223,3.90595],[-74.34667,3.89974],[-74.34836,3.90045],[-74.35083,3.89697],[-74.35288,3.89063],[-74.35544,3.88909],[-74.35747,3.8906],[-74.35895,3.89358],[-74.35788,3.90334],[-74.3599,3.90482],[-74.36316,3.90507],[-74.36523,3.89877],[-74.36669,3.89775],[-74.36839,3.89453],[-74.37048,3.88666],[-74.37181,3.8857],[-74.37358,3.87911],[-74.37552,3.87766],[-74.37541,3.87662],[-74.37719,3.87645],[-74.37761,3.8749],[-74.38195,3.87186],[-74.38233,3.86869],[-74.37696,3.86438],[-74.36229,3.85824],[-74.3592,3.85797],[-74.3574,3.85672],[-74.35012,3.85438],[-74.34746,3.85541],[-74.34387,3.8552],[-74.34415,3.86161],[-74.34213,3.86585],[-74.33882,3.8697],[-74.33648,3.87161],[-74.33252,3.87313],[-74.32388,3.87389],[-74.32078,3.87644],[-74.31817,3.87682],[-74.31722,3.87803],[-74.31821,3.87965],[-74.3145,3.88573],[-74.31508,3.88878],[-74.31442,3.89008],[-74.31964,3.89991],[-74.31925,3.9055]]]}},{"type":"Feature","properties":{"nombre":"CHORRERAS","codigo":"11001006","area_ha":2106},"geometry":{"type":"Polygon","coordinates":[[[-74.31297,4.01391],[-74.31432,4.014],[-74.31725,4.01111],[-74.32203,4.00837],[-74.32496,4.00508],[-74.3342,3.99902],[-74.33505,3.99774],[-74.32975,3.99751],[-74.32341,3.99955],[-74.31199,3.9971],[-74.30602,3.99413],[-74.30564,3.99335],[-74.30776,3.99035],[-74.30679,3.98831],[-74.30438,3.98853],[-74.30394,3.99254],[-74.29778,3.98671],[-74.29311,3.98541],[-74.28873,3.98141],[-74.28302,3.97992],[-74.27701,3.9761],[-74.273,3.97484],[-74.26952,3.97147],[-74.26889,3.97195],[-74.26536,3.96924],[-74.26432,3.96991],[-74.26343,3.96805],[-74.26165,3.96765],[-74.2592,3.96353],[-74.25794,3.9636],[-74.25613,3.96542],[-74.25512,3.96394],[-74.25312,3.96371],[-74.25145,3.96149],[-74.24555,3.96112],[-74.24187,3.95893],[-74.2404,3.96065],[-74.23842,3.96523],[-74.2386,3.97127],[-74.23712,3.97423],[-74.24201,3.97498],[-74.24629,3.97678],[-74.24967,3.97895],[-74.25422,3.98444],[-74.25904,3.98426],[-74.26368,3.98579],[-74.26504,3.98706],[-74.26986,3.98827],[-74.27274,3.99102],[-74.2745,3.99039],[-74.27707,3.99539],[-74.27734,4.0017],[-74.2749,4.00003],[-74.27121,3.99944],[-74.27179,4.00368],[-74.27918,4.00535],[-74.28427,4.00972],[-74.2877,4.01111],[-74.29648,4.00918],[-74.30576,4.01134],[-74.30901,4.01296],[-74.31095,4.01242],[-74.31297,4.01391]]]}},{"type":"Feature","properties":{"nombre":"SAN JUAN","codigo":"11001052","area_ha":709.5},"geometry":{"type":"Polygon","coordinates":[[[-74.30667,4.03959],[-74.30716,4.04171],[-74.31099,4.04513],[-74.31676,4.04134],[-74.3182,4.03959],[-74.32045,4.03896],[-74.32051,4.03548],[-74.31676,4.0288],[-74.31991,4.02712],[-74.32143,4.0244],[-74.32524,4.02076],[-74.32583,4.01875],[-74.32931,4.01549],[-74.33067,4.01282],[-74.32583,4.00473],[-74.31432,4.014],[-74.31297,4.01391],[-74.31185,4.01481],[-74.31095,4.01706],[-74.30549,4.0194],[-74.30324,4.02256],[-74.30405,4.0263],[-74.30288,4.0304],[-74.30135,4.03251],[-74.2986,4.03292],[-74.30108,4.039],[-74.30198,4.03923],[-74.30261,4.03806],[-74.30369,4.039],[-74.30667,4.03959]]]}},{"type":"Feature","properties":{"nombre":"EL TOLDO","codigo":"11001015","area_ha":4495.8},"geometry":{"type":"Polygon","coordinates":[[[-74.2452,4.07939],[-74.24841,4.08096],[-74.2496,4.07993],[-74.2502,4.08113],[-74.25259,4.08053],[-74.25389,4.0814],[-74.25487,4.0846],[-74.2602,4.08444],[-74.26606,4.08134],[-74.27519,4.07906],[-74.2803,4.07547],[-74.28351,4.0746],[-74.29138,4.07998],[-74.29975,4.07786],[-74.3123,4.07841],[-74.31714,4.07547],[-74.32263,4.07776],[-74.32426,4.08102],[-74.3329,4.08411],[-74.3373,4.08156],[-74.33942,4.07819],[-74.34355,4.07602],[-74.34713,4.07678],[-74.34886,4.07801],[-74.34858,4.0785],[-74.34967,4.07808],[-74.3494,4.07649],[-74.35063,4.07408],[-74.34946,4.07185],[-74.3513,4.06762],[-74.35041,4.06609],[-74.35011,4.06054],[-74.35085,4.05695],[-74.35168,4.05622],[-74.34311,4.05363],[-74.33974,4.05135],[-74.33616,4.047],[-74.32757,4.04304],[-74.32545,4.04054],[-74.32263,4.03929],[-74.31906,4.03914],[-74.31099,4.04513],[-74.30716,4.04171],[-74.30612,4.03905],[-74.30369,4.039],[-74.30261,4.03806],[-74.30198,4.03923],[-74.30108,4.039],[-74.2986,4.03292],[-74.29144,4.04058],[-74.28765,4.04256],[-74.28513,4.04639],[-74.27986,4.04846],[-74.2736,4.0472],[-74.25787,4.04702],[-74.24841,4.04526],[-74.24719,4.04468],[-74.24692,4.04297],[-74.24355,4.03923],[-74.24107,4.03869],[-74.238,4.03968],[-74.23209,4.03878],[-74.23129,4.04244],[-74.23672,4.04668],[-74.23928,4.04499],[-74.24015,4.04548],[-74.24227,4.05309],[-74.24444,4.05292],[-74.25183,4.05586],[-74.25243,4.05776],[-74.24759,4.06939],[-74.2452,4.07939]]]}},{"type":"Feature","properties":{"nombre":"LAS VEGAS","codigo":"11001031","area_ha":4817.2},"geometry":{"type":"Polygon","coordinates":[[[-74.23209,4.03878],[-74.238,4.03968],[-74.24107,4.03869],[-74.24355,4.03923],[-74.24692,4.04297],[-74.24774,4.04508],[-74.25206,4.04544],[-74.25566,4.04671],[-74.26526,4.04675],[-74.2685,4.04756],[-74.2736,4.0472],[-74.28089,4.04819],[-74.28513,4.04639],[-74.28765,4.04256],[-74.29144,4.04058],[-74.2986,4.03292],[-74.30135,4.03251],[-74.30288,4.0304],[-74.30405,4.0263],[-74.30324,4.02256],[-74.30549,4.0194],[-74.31095,4.01706],[-74.31297,4.01391],[-74.31095,4.01242],[-74.30901,4.01296],[-74.30576,4.01134],[-74.29648,4.00918],[-74.2877,4.01111],[-74.28427,4.00972],[-74.27918,4.00535],[-74.27274,4.00436],[-74.27179,4.00368],[-74.27121,3.99944],[-74.2749,4.00003],[-74.27734,4.0017],[-74.27707,3.99539],[-74.2745,3.99039],[-74.27274,3.99102],[-74.26986,3.98827],[-74.26504,3.98706],[-74.26368,3.98579],[-74.25904,3.98426],[-74.25422,3.98444],[-74.24967,3.97895],[-74.24629,3.97678],[-74.24201,3.97498],[-74.23712,3.97423],[-74.2329,3.97899],[-74.23303,3.98374],[-74.23073,3.98743],[-74.22941,3.99375],[-74.22225,4.00046],[-74.22008,4.0053],[-74.21721,4.00809],[-74.21748,4.01045],[-74.21499,4.01308],[-74.22162,4.01685],[-74.22797,4.01858],[-74.23373,4.02309],[-74.23466,4.02521],[-74.23216,4.03342],[-74.23209,4.03878]]]}},{"type":"Feature","properties":{"nombre":"BETANIA","codigo":"11001003","area_ha":1054.9},"geometry":{"type":"Polygon","coordinates":[[[-74.13732,4.22372],[-74.14238,4.2238],[-74.14489,4.22575],[-74.15396,4.22833],[-74.16011,4.22882],[-74.1645,4.22694],[-74.16689,4.22823],[-74.16676,4.2242],[-74.16484,4.21792],[-74.1612,4.21514],[-74.16113,4.21307],[-74.16655,4.20709],[-74.17325,4.20259],[-74.1664,4.19753],[-74.16441,4.19447],[-74.15642,4.2021],[-74.15493,4.20031],[-74.15286,4.19981],[-74.1525,4.19725],[-74.15129,4.19703],[-74.14659,4.19896],[-74.14024,4.19432],[-74.13903,4.19432],[-74.13882,4.19596],[-74.13696,4.19696],[-74.13511,4.20103],[-74.13285,4.20093],[-74.1328,4.2047],[-74.1353,4.20444],[-74.13677,4.20898],[-74.13573,4.21052],[-74.13743,4.21222],[-74.13884,4.21535],[-74.13795,4.21637],[-74.13906,4.218],[-74.13775,4.21907],[-74.13732,4.22372]]]}},{"type":"Feature","properties":{"nombre":"CHISACA","codigo":"11001005","area_ha":2315.1},"geometry":{"type":"Polygon","coordinates":[[[-74.20362,4.35993],[-74.21826,4.35819],[-74.22041,4.35308],[-74.2207,4.3489],[-74.21959,4.34194],[-74.22029,4.33958],[-74.21872,4.335],[-74.21519,4.30768],[-74.21586,4.30625],[-74.21512,4.30559],[-74.21478,4.30229],[-74.21478,4.29399],[-74.21552,4.29021],[-74.21982,4.28347],[-74.21988,4.28084],[-74.21579,4.27416],[-74.21121,4.27279],[-74.20568,4.26862],[-74.20408,4.2772],[-74.20004,4.28515],[-74.19452,4.29011],[-74.19578,4.29304],[-74.19571,4.29786],[-74.19389,4.3033],[-74.19278,4.31049],[-74.19312,4.31238],[-74.19724,4.31629],[-74.19759,4.31789],[-74.19634,4.32585],[-74.19682,4.33786],[-74.19285,4.34547],[-74.19117,4.34749],[-74.18838,4.34854],[-74.18838,4.35105],[-74.18991,4.35189],[-74.18956,4.35398],[-74.19267,4.35832],[-74.19823,4.35904],[-74.20012,4.3585],[-74.20362,4.35993]]]}},{"type":"Feature","properties":{"nombre":"SANTA ROSA ALTA","codigo":"11001056","area_ha":2447.7},"geometry":{"type":"Polygon","coordinates":[[[-74.18251,4.24823],[-74.18566,4.28243],[-74.19452,4.29011],[-74.20004,4.28515],[-74.20408,4.2772],[-74.20506,4.27015],[-74.20585,4.26892],[-74.20491,4.26805],[-74.20622,4.259],[-74.20421,4.25189],[-74.20788,4.24811],[-74.20552,4.24143],[-74.20657,4.24082],[-74.2133,4.24068],[-74.21572,4.23704],[-74.21827,4.23522],[-74.22081,4.22769],[-74.21337,4.21912],[-74.21072,4.21758],[-74.20639,4.21947],[-74.2059,4.21891],[-74.20499,4.21493],[-74.2036,4.21402],[-74.20544,4.2084],[-74.19829,4.20732],[-74.19522,4.21011],[-74.19271,4.21046],[-74.18559,4.20683],[-74.17986,4.20697],[-74.1793,4.20767],[-74.18147,4.21116],[-74.18224,4.22177],[-74.18307,4.22442],[-74.18112,4.22854],[-74.1807,4.2335],[-74.18154,4.23496],[-74.18251,4.24823]]]}},{"type":"Feature","properties":{"nombre":"ITSMO","codigo":"11001020","area_ha":3539.9},"geometry":{"type":"Polygon","coordinates":[[[-74.18405,4.35685],[-74.1858,4.35929],[-74.18747,4.35943],[-74.18984,4.35922],[-74.19159,4.35747],[-74.19082,4.35496],[-74.18956,4.35398],[-74.18991,4.35189],[-74.18838,4.35105],[-74.18838,4.34854],[-74.19117,4.34749],[-74.19285,4.34547],[-74.19682,4.33786],[-74.19634,4.32585],[-74.19759,4.31789],[-74.19724,4.31629],[-74.19312,4.31238],[-74.19278,4.31049],[-74.19389,4.3033],[-74.19571,4.29786],[-74.19578,4.29304],[-74.19452,4.29011],[-74.18566,4.28243],[-74.18154,4.23496],[-74.1807,4.2335],[-74.18112,4.22854],[-74.16925,4.22882],[-74.16689,4.22823],[-74.16911,4.23524],[-74.17093,4.25779],[-74.17183,4.26065],[-74.17225,4.2742],[-74.17407,4.28264],[-74.16478,4.28299],[-74.15899,4.28439],[-74.14741,4.29515],[-74.14936,4.29849],[-74.15452,4.31391],[-74.15669,4.31736],[-74.15829,4.31727],[-74.16192,4.31915],[-74.16569,4.31852],[-74.16751,4.32013],[-74.17197,4.32034],[-74.1747,4.32187],[-74.17511,4.32816],[-74.17428,4.33192],[-74.17532,4.34191],[-74.17805,4.34868],[-74.17805,4.35433],[-74.17593,4.3576],[-74.17798,4.35803],[-74.18405,4.35685]]]}},{"type":"Feature","properties":{"nombre":"TABACO","codigo":"11001060","area_ha":2132.9},"geometry":{"type":"Polygon","coordinates":[[[-74.13903,4.29988],[-74.13826,4.30142],[-74.13847,4.30337],[-74.15899,4.28439],[-74.16478,4.28299],[-74.17407,4.28264],[-74.17225,4.2742],[-74.17183,4.26065],[-74.17093,4.25779],[-74.16911,4.23524],[-74.16689,4.22823],[-74.16541,4.22701],[-74.16276,4.22729],[-74.16011,4.22882],[-74.15396,4.22833],[-74.14489,4.22575],[-74.14238,4.2238],[-74.14063,4.22359],[-74.13732,4.22372],[-74.13601,4.22662],[-74.1363,4.2296],[-74.14099,4.23212],[-74.14262,4.23408],[-74.14545,4.24016],[-74.1456,4.24488],[-74.15105,4.25008],[-74.15267,4.25413],[-74.15036,4.25918],[-74.14337,4.26883],[-74.14146,4.2786],[-74.13396,4.28774],[-74.1297,4.29756],[-74.14126,4.29395],[-74.13903,4.29988]]]}}]}